{
  "type": "FeatureCollection",
  "features": [
    {
      "type": "Feature",
      "properties": {
        "norad_id": 41599,
        "name": "CARTOSAT-2C",
        "group": "resource",
        "lat": -49.452909723117784,
        "lon": -131.7689209263185,
        "alt_km": 521.5098561974573,
        "timestamp": "2025-12-25T22:42:16.653744+00:00",
        "meta_object_name": "CARTOSAT-2C",
        "meta_object_id": "2016-040A",
        "meta_epoch": "2025-12-25T16:57:11.407392",
        "meta_mean_motion": 15.19233799,
        "meta_eccentricity": 0.0010706,
        "meta_inclination": 97.4743,
        "meta_ra_of_asc_node": 56.8216,
        "meta_arg_of_pericenter": 21.5352,
        "meta_mean_anomaly": 338.6331,
        "meta_ephemeris_type": 0,
        "meta_classification_type": "U",
        "meta_norad_cat_id": 41599,
        "meta_element_set_no": 999,
        "meta_rev_at_epoch": 52737,
        "meta_bstar": 0.00027031,
        "meta_mean_motion_dot": 5.634e-05,
        "meta_mean_motion_ddot": 0,
        "tle_line1": "1 41599U 16040A   25359.70638203  .00005634  00000+0  27031-3 0  9995",
        "tle_line2": "2 41599  97.4743  56.8216 0010706  21.5352 338.6331 15.19233799527374"
      },
      "geometry": {
        "type": "Point",
        "coordinates": [
          -131.7689209263185,
          -49.452909723117784
        ]
      }
    },
    {
      "type": "Feature",
      "properties": {
        "norad_id": 41601,
        "name": "SKYSAT-C1",
        "group": "resource",
        "lat": -25.20258934539826,
        "lon": -147.09060697928376,
        "alt_km": 473.3238173316604,
        "timestamp": "2025-12-25T22:42:16.653754+00:00",
        "meta_object_name": "SKYSAT-C1",
        "meta_object_id": "2016-040C",
        "meta_epoch": "2025-12-25T15:32:40.638048",
        "meta_mean_motion": 15.3282008,
        "meta_eccentricity": 8.71e-05,
        "meta_inclination": 96.9805,
        "meta_ra_of_asc_node": 35.9335,
        "meta_arg_of_pericenter": 317.384,
        "meta_mean_anomaly": 42.7336,
        "meta_ephemeris_type": 0,
        "meta_classification_type": "U",
        "meta_norad_cat_id": 41601,
        "meta_element_set_no": 999,
        "meta_rev_at_epoch": 53125,
        "meta_bstar": 0.00031619,
        "meta_mean_motion_dot": 9.953e-05,
        "meta_mean_motion_ddot": 0,
        "tle_line1": "1 41601U 16040C   25359.64769257  .00009953  00000+0  31619-3 0  9991",
        "tle_line2": "2 41601  96.9805  35.9335 0000871 317.3840  42.7336 15.32820080531251"
      },
      "geometry": {
        "type": "Point",
        "coordinates": [
          -147.09060697928376,
          -25.20258934539826
        ]
      }
    },
    {
      "type": "Feature",
      "properties": {
        "norad_id": 41603,
        "name": "LAPAN-A3",
        "group": "resource",
        "lat": -62.26923254427954,
        "lon": 10.825106748135578,
        "alt_km": 472.452271615115,
        "timestamp": "2025-12-25T22:42:16.653765+00:00",
        "meta_object_name": "LAPAN-A3",
        "meta_object_id": "2016-040E",
        "meta_epoch": "2025-12-25T18:16:32.692800",
        "meta_mean_motion": 15.31658198,
        "meta_eccentricity": 0.000864,
        "meta_inclination": 97.1437,
        "meta_ra_of_asc_node": 356.8446,
        "meta_arg_of_pericenter": 279.6137,
        "meta_mean_anomaly": 80.4129,
        "meta_ephemeris_type": 0,
        "meta_classification_type": "U",
        "meta_norad_cat_id": 41603,
        "meta_element_set_no": 999,
        "meta_rev_at_epoch": 52825,
        "meta_bstar": 0.00015653,
        "meta_mean_motion_dot": 4.715e-05,
        "meta_mean_motion_ddot": 0,
        "tle_line1": "1 41603U 16040E   25359.76148950  .00004715  00000+0  15653-3 0  9998",
        "tle_line2": "2 41603  97.1437 356.8446 0008640 279.6137  80.4129 15.31658198528259"
      },
      "geometry": {
        "type": "Point",
        "coordinates": [
          10.825106748135578,
          -62.26923254427954
        ]
      }
    },
    {
      "type": "Feature",
      "properties": {
        "norad_id": 41604,
        "name": "BIROS",
        "group": "resource",
        "lat": 58.6732026582456,
        "lon": -136.28219896719483,
        "alt_km": 279.7437307217633,
        "timestamp": "2025-12-25T22:42:16.653775+00:00",
        "meta_object_name": "BIROS",
        "meta_object_id": "2016-040F",
        "meta_epoch": "2025-12-25T01:07:09.917184",
        "meta_mean_motion": 15.94683958,
        "meta_eccentricity": 0.00039046,
        "meta_inclination": 97.0657,
        "meta_ra_of_asc_node": 31.0163,
        "meta_arg_of_pericenter": 124.4663,
        "meta_mean_anomaly": 235.6982,
        "meta_ephemeris_type": 0,
        "meta_classification_type": "U",
        "meta_norad_cat_id": 41604,
        "meta_element_set_no": 999,
        "meta_rev_at_epoch": 53068,
        "meta_bstar": 0.0006151692,
        "meta_mean_motion_dot": 0.00232464,
        "meta_mean_motion_ddot": 2.2718232e-05,
        "tle_line1": "1 41604U 16040F   25359.04664256  .00232464  22718-4  61517-3 0  9991",
        "tle_line2": "2 41604  97.0657  31.0163 0003904 124.4663 235.6982 15.94683958530682"
      },
      "geometry": {
        "type": "Point",
        "coordinates": [
          -136.28219896719483,
          58.6732026582456
        ]
      }
    },
    {
      "type": "Feature",
      "properties": {
        "norad_id": 41727,
        "name": "GAOFEN-3",
        "group": "resource",
        "lat": 27.68521994829057,
        "lon": -170.2210886433528,
        "alt_km": 750.0887100768396,
        "timestamp": "2025-12-25T22:42:16.653786+00:00",
        "meta_object_name": "GAOFEN-3",
        "meta_object_id": "2016-049A",
        "meta_epoch": "2025-12-25T18:40:21.453312",
        "meta_mean_motion": 14.42216097,
        "meta_eccentricity": 0.0001081,
        "meta_inclination": 98.4038,
        "meta_ra_of_asc_node": 5.1649,
        "meta_arg_of_pericenter": 55.7063,
        "meta_mean_anomaly": 304.4229,
        "meta_ephemeris_type": 0,
        "meta_classification_type": "U",
        "meta_norad_cat_id": 41727,
        "meta_element_set_no": 999,
        "meta_rev_at_epoch": 49365,
        "meta_bstar": -8.4125e-06,
        "meta_mean_motion_dot": -7.1e-07,
        "meta_mean_motion_ddot": 0,
        "tle_line1": "1 41727U 16049A   25359.77802608 -.00000071  00000+0 -84125-5 0  9997",
        "tle_line2": "2 41727  98.4038   5.1649 0001081  55.7063 304.4229 14.42216097493653"
      },
      "geometry": {
        "type": "Point",
        "coordinates": [
          -170.2210886433528,
          27.68521994829057
        ]
      }
    },
    {
      "type": "Feature",
      "properties": {
        "norad_id": 41771,
        "name": "SKYSAT-C4",
        "group": "resource",
        "lat": -61.5146718846637,
        "lon": -168.47239814084946,
        "alt_km": 446.49600965396075,
        "timestamp": "2025-12-25T22:42:16.653796+00:00",
        "meta_object_name": "SKYSAT-C4",
        "meta_object_id": "2016-058B",
        "meta_epoch": "2025-12-25T15:25:49.908000",
        "meta_mean_motion": 15.42614539,
        "meta_eccentricity": 0.0002597,
        "meta_inclination": 96.9363,
        "meta_ra_of_asc_node": 24.2043,
        "meta_arg_of_pericenter": 122.5329,
        "meta_mean_anomaly": 237.6171,
        "meta_ephemeris_type": 0,
        "meta_classification_type": "U",
        "meta_norad_cat_id": 41771,
        "meta_element_set_no": 999,
        "meta_rev_at_epoch": 51866,
        "meta_bstar": 0.00035539,
        "meta_mean_motion_dot": 0.00015394,
        "meta_mean_motion_ddot": 0,
        "tle_line1": "1 41771U 16058B   25359.64293875  .00015394  00000+0  35539-3 0  9997",
        "tle_line2": "2 41771  96.9363  24.2043 0002597 122.5329 237.6171 15.42614539518663"
      },
      "geometry": {
        "type": "Point",
        "coordinates": [
          -168.47239814084946,
          -61.5146718846637
        ]
      }
    },
    {
      "type": "Feature",
      "properties": {
        "norad_id": 41772,
        "name": "SKYSAT-C5",
        "group": "resource",
        "lat": 58.626494359640034,
        "lon": -125.10469809728411,
        "alt_km": 458.7360367733827,
        "timestamp": "2025-12-25T22:42:16.653806+00:00",
        "meta_object_name": "SKYSAT-C5",
        "meta_object_id": "2016-058C",
        "meta_epoch": "2025-12-25T15:55:07.252896",
        "meta_mean_motion": 15.34107914,
        "meta_eccentricity": 0.0004015,
        "meta_inclination": 97.0737,
        "meta_ra_of_asc_node": 42.874,
        "meta_arg_of_pericenter": 228.3767,
        "meta_mean_anomaly": 131.7134,
        "meta_ephemeris_type": 0,
        "meta_classification_type": "U",
        "meta_norad_cat_id": 41772,
        "meta_element_set_no": 999,
        "meta_rev_at_epoch": 51714,
        "meta_bstar": 0.00030794,
        "meta_mean_motion_dot": 0.00010094,
        "meta_mean_motion_ddot": 0,
        "tle_line1": "1 41772U 16058C   25359.66327839  .00010094  00000+0  30794-3 0  9998",
        "tle_line2": "2 41772  97.0737  42.8740 0004015 228.3767 131.7134 15.34107914517149"
      },
      "geometry": {
        "type": "Point",
        "coordinates": [
          -125.10469809728411,
          58.626494359640034
        ]
      }
    }
  ]
}